CCSDS_OMM_VERS = 2.0
CREATION_DATE  = 
ORIGINATOR     = 

OBJECT_NAME    = DUPLEX
OBJECT_ID      = 1998-067XS
CENTER_NAME    = EARTH
REF_FRAME      = TEME
TIME_SYSTEM    = UTC
MEAN_ELEMENT_THEORY = SGP/SGP4

EPOCH          = 2026-01-19T23:38:48.064992
MEAN_MOTION    = 15.52732955
ECCENTRICITY   = .00020854
INCLINATION    = 51.6319
RA_OF_ASC_NODE = 312.4332
ARG_OF_PERICENTER = 35.9494
MEAN_ANOMALY   = 324.1636

EPHEMERIS_TYPE = 0
CLASSIFICATION_TYPE = U
NORAD_CAT_ID   = 66906
ELEMENT_SET_NO = 999
REV_AT_EPOCH   = 755
BSTAR          = .57057168E-3
MEAN_MOTION_DOT = .35595E-3
MEAN_MOTION_DDOT = 0

CCSDS_OMM_VERS = 2.0
CREATION_DATE  = 
ORIGINATOR     = 

OBJECT_NAME    = 1998-067XT
OBJECT_ID      = 1998-067XT
CENTER_NAME    = EARTH
REF_FRAME      = TEME
TIME_SYSTEM    = UTC
MEAN_ELEMENT_THEORY = SGP/SGP4

EPOCH          = 2026-01-19T23:38:11.890176
MEAN_MOTION    = 15.57112566
ECCENTRICITY   = .00034787
INCLINATION    = 51.6304
RA_OF_ASC_NODE = 311.6799
ARG_OF_PERICENTER = 90.1630
MEAN_ANOMALY   = 269.9760

EPHEMERIS_TYPE = 0
CLASSIFICATION_TYPE = U
NORAD_CAT_ID   = 66907
ELEMENT_SET_NO = 999
REV_AT_EPOCH   = 756
BSTAR          = .1421199E-2
MEAN_MOTION_DOT = .105958E-2
MEAN_MOTION_DDOT = 0

CCSDS_OMM_VERS = 2.0
CREATION_DATE  = 
ORIGINATOR     = 

OBJECT_NAME    = 1998-067XU
OBJECT_ID      = 1998-067XU
CENTER_NAME    = EARTH
REF_FRAME      = TEME
TIME_SYSTEM    = UTC
MEAN_ELEMENT_THEORY = SGP/SGP4

EPOCH          = 2026-01-19T23:37:10.433856
MEAN_MOTION    = 15.57039985
ECCENTRICITY   = .00033539
INCLINATION    = 51.6304
RA_OF_ASC_NODE = 311.6737
ARG_OF_PERICENTER = 84.4923
MEAN_ANOMALY   = 275.6451

EPHEMERIS_TYPE = 0
CLASSIFICATION_TYPE = U
NORAD_CAT_ID   = 66908
ELEMENT_SET_NO = 999
REV_AT_EPOCH   = 756
BSTAR          = .134053E-2
MEAN_MOTION_DOT = .99563E-3
MEAN_MOTION_DDOT = 0

CCSDS_OMM_VERS = 2.0
CREATION_DATE  = 
ORIGINATOR     = 

OBJECT_NAME    = SILVERSAT
OBJECT_ID      = 1998-067XV
CENTER_NAME    = EARTH
REF_FRAME      = TEME
TIME_SYSTEM    = UTC
MEAN_ELEMENT_THEORY = SGP/SGP4

EPOCH          = 2026-01-19T20:16:25.349376
MEAN_MOTION    = 15.57849817
ECCENTRICITY   = .00037088
INCLINATION    = 51.6302
RA_OF_ASC_NODE = 312.2436
ARG_OF_PERICENTER = 95.0412
MEAN_ANOMALY   = 265.1004

EPHEMERIS_TYPE = 0
CLASSIFICATION_TYPE = U
NORAD_CAT_ID   = 66909
ELEMENT_SET_NO = 999
REV_AT_EPOCH   = 754
BSTAR          = .11150473E-2
MEAN_MOTION_DOT = .85138E-3
MEAN_MOTION_DDOT = 0

CCSDS_OMM_VERS = 2.0
CREATION_DATE  = 
ORIGINATOR     = 

OBJECT_NAME    = 1998-067XW
OBJECT_ID      = 1998-067XW
CENTER_NAME    = EARTH
REF_FRAME      = TEME
TIME_SYSTEM    = UTC
MEAN_ELEMENT_THEORY = SGP/SGP4

EPOCH          = 2026-01-19T23:25:27.298560
MEAN_MOTION    = 15.57357417
ECCENTRICITY   = .00022455
INCLINATION    = 51.6292
RA_OF_ASC_NODE = 311.6175
ARG_OF_PERICENTER = 72.0610
MEAN_ANOMALY   = 288.0626

EPHEMERIS_TYPE = 0
CLASSIFICATION_TYPE = U
NORAD_CAT_ID   = 66910
ELEMENT_SET_NO = 999
REV_AT_EPOCH   = 756
BSTAR          = .12018553E-2
MEAN_MOTION_DOT = .90164E-3
MEAN_MOTION_DDOT = 0

CCSDS_OMM_VERS = 2.0
CREATION_DATE  = 
ORIGINATOR     = 

OBJECT_NAME    = 1998-067XX
OBJECT_ID      = 1998-067XX
CENTER_NAME    = EARTH
REF_FRAME      = TEME
TIME_SYSTEM    = UTC
MEAN_ELEMENT_THEORY = SGP/SGP4

EPOCH          = 2026-01-19T12:11:14.828928
MEAN_MOTION    = 15.58671137
ECCENTRICITY   = .00024434
INCLINATION    = 51.6292
RA_OF_ASC_NODE = 313.7419
ARG_OF_PERICENTER = 94.9192
MEAN_ANOMALY   = 265.2080

EPHEMERIS_TYPE = 0
CLASSIFICATION_TYPE = U
NORAD_CAT_ID   = 66911
ELEMENT_SET_NO = 999
REV_AT_EPOCH   = 748
BSTAR          = .13776829E-2
MEAN_MOTION_DOT = .108939E-2
MEAN_MOTION_DDOT = 0

CCSDS_OMM_VERS = 2.0
CREATION_DATE  = 
ORIGINATOR     = 

OBJECT_NAME    = 1998-067XY
OBJECT_ID      = 1998-067XY
CENTER_NAME    = EARTH
REF_FRAME      = TEME
TIME_SYSTEM    = UTC
MEAN_ELEMENT_THEORY = SGP/SGP4

EPOCH          = 2026-01-19T05:42:11.629440
MEAN_MOTION    = 15.55382536
ECCENTRICITY   = .00031813
INCLINATION    = 51.6311
RA_OF_ASC_NODE = 315.6893
ARG_OF_PERICENTER = 65.9207
MEAN_ANOMALY   = 294.2116

EPHEMERIS_TYPE = 0
CLASSIFICATION_TYPE = U
NORAD_CAT_ID   = 66912
ELEMENT_SET_NO = 999
REV_AT_EPOCH   = 743
BSTAR          = .93704698E-3
MEAN_MOTION_DOT = .65002E-3
MEAN_MOTION_DDOT = 0

