DUPLEX                  
1 66906U 98067XS  26019.98527853  .00035595  00000+0  57057-3 0  9995
2 66906  51.6319 312.4332 0002085  35.9494 324.1636 15.52732955  7557
1998-067XT              
1 66907U 98067XT  26019.98485984  .00105958  00000+0  14212-2 0  9990
2 66907  51.6304 311.6799 0003478  90.1630 269.9760 15.57112566  7562
1998-067XU              
1 66908U 98067XU  26019.98414854  .00099563  00000+0  13405-2 0  9996
2 66908  51.6304 311.6737 0003353  84.4923 275.6451 15.57039985  7562
SILVERSAT               
1 66909U 98067XV  26019.84473784  .00085138  00000+0  11150-2 0  9997
2 66909  51.6302 312.2436 0003708  95.0412 265.1004 15.57849817  7548
1998-067XW              
1 66910U 98067XW  26019.97601040  .00090164  00000+0  12019-2 0  9991
2 66910  51.6292 311.6175 0002245  72.0610 288.0626 15.57357417  7567
1998-067XX              
1 66911U 98067XX  26019.50781052  .00108939  00000+0  13777-2 0  9995
2 66911  51.6292 313.7419 0002443  94.9192 265.2080 15.58671137  7481
1998-067XY              
1 66912U 98067XY  26019.23763460  .00065002  00000+0  93705-3 0  9992
2 66912  51.6311 315.6893 0003181  65.9207 294.2116 15.55382536  7432
